[{"OBJECT_NAME":"OBJECT B","OBJECT_ID":"2024-203B","EPOCH":"2026-03-09T23:52:52.928256","MEAN_MOTION":15.27506959,"ECCENTRICITY":0.00103904,"INCLINATION":97.4268,"RA_OF_ASC_NODE":139.5887,"ARG_OF_PERICENTER":321.1475,"MEAN_ANOMALY":38.9016,"EPHEMERIS_TYPE":0,"CLASSIFICATION_TYPE":"U","NORAD_CAT_ID":61870,"ELEMENT_SET_NO":999,"REV_AT_EPOCH":7381,"BSTAR":0.00063263842,"MEAN_MOTION_DOT":0.00016997,"MEAN_MOTION_DDOT":0},{"OBJECT_NAME":"STARLINK-34597","OBJECT_ID":"2025-144Q","EPOCH":"2026-03-09T14:36:00.735840","MEAN_MOTION":15.30174017,"ECCENTRICITY":0.0001046,"INCLINATION":53.1586,"RA_OF_ASC_NODE":181.1166,"ARG_OF_PERICENTER":100.129,"MEAN_ANOMALY":259.9829,"EPHEMERIS_TYPE":0,"CLASSIFICATION_TYPE":"U","NORAD_CAT_ID":64738,"ELEMENT_SET_NO":999,"REV_AT_EPOCH":3968,"BSTAR":0.00064685,"MEAN_MOTION_DOT":0.00018832,"MEAN_MOTION_DDOT":0}]
